GSAT0222 (GALILEO 26)   
1 43565U 18060B   23165.02455242 -.00000094  00000+0  00000+0 0  9991
2 43565  57.2732  11.4167 0001925 333.4987  26.5354  1.70475626 30472
GSAT0219 (GALILEO 23)   
1 43566U 18060C   23164.07188260 -.00000093  00000+0  00000+0 0  9998
2 43566  57.2736  11.4446 0001766 342.9386  17.0986  1.70475628 30432
GSAT0220 (GALILEO 24)   
1 43567U 18060D   23163.70566526 -.00000093  00000+0  00000+0 0  9993
2 43567  57.2734  11.4542 0001635 329.3009  30.7323  1.70475428 30417
BEIDOU-3 M13            
1 43622U 18072A   23163.78120252 -.00000028  00000+0  00000+0 0  9996
2 43622  55.7130  99.2642 0007900 299.0700  60.8210  1.86231608 32169
BEIDOU-3 M14            
1 43623U 18072B   23164.18361133 -.00000034  00000+0  00000+0 0  9994
2 43623  55.7151  99.2434 0005973 322.3509  37.5758  1.86231614 32162
GPS BIII-1              
1 43873U 18109A   23164.40258083  .00000054  00000+0  00000+0 0  9997
2 43873  55.1737 135.6416 0024507 194.6874 348.0106  2.00564924 33019
METEOR-M2 2             
1 44387U 19038A   23165.50102107  .00000040  00000+0  36888-4 0  9990
2 44387  98.7755 129.4107 0000884   8.7854 351.3340 14.23786199204921
GPS BIII-2              
1 44506U 19056A   23164.57590812 -.00000096  00000+0  00000+0 0  9997
2 44506  55.8038  14.7152 0033098 182.7976  25.7702  2.00564314 28012
BEIDOU-3 M23            
1 44542U 19061A   23164.56301664  .00000049  00000+0  00000+0 0  9994
2 44542  54.4984 219.8628 0007554 335.5840  24.4595  1.86231222 25317
BEIDOU-3 M24            
1 44543U 19061B   23165.32634069  .00000058  00000+0  00000+0 0  9998
2 44543  54.4967 219.8061 0005148 315.4161 108.1821  1.86231594 25325
BEIDOU-3 M21            
1 44793U 19078A   23164.94495468 -.00000101  00000+0  00000+0 0  9998
2 44793  54.8076 338.1516 0006476  27.7821 332.2538  1.86232219 24181
BEIDOU-3 M22            
1 44794U 19078B   23165.07572347 -.00000102  00000+0  00000+0 0  9997
2 44794  54.7814 338.1310 0004330  27.7024 332.3216  1.86232676 24186
ELEKTRO-L 3             
1 44903U 19095A   23164.79286699 -.00000095  00000+0  00000+0 0  9999
2 44903   0.0970  86.2737 0001202  37.7794 139.2130  1.00270109 12678
GPS BIII-3              
1 45854U 20041A   23164.62271450 -.00000085  00000+0  00000+0 0  9998
2 45854  55.8124  71.9920 0032525 186.3343 359.3726  2.00565294 21984
GPS BIII-4              
1 46826U 20078A   23164.63172781 -.00000033  00000+0  00000+0 0  9999
2 46826  54.3509 255.4265 0032981 191.8116 335.9368  2.00562652 19457
GSAT0223 (GALILEO 27)   
1 49809U 21116A   23162.97358456 -.00000092  00000+0  00000+0 0  9992
2 49809  57.2648  11.3704 0001792 126.2770 234.6925  1.70475448  9419
GSAT0224 (GALILEO 28)   
1 49810U 21116B   23164.84744927 -.00000094  00000+0  00000+0 0  9996
2 49810  57.2661  11.3181 0001979 106.7786  76.6988  1.70475593  9461
GOES 18                 
1 51850U 22021A   23164.96549799  .00000099  00000+0  00000+0 0  9996
2 51850   0.0473 148.0326 0000380 247.0651  77.4729  1.00271056  4782
